[{"OBJECT_NAME":"ICEYE-X6","OBJECT_ID":"2020-068M","EPOCH":"2026-03-09T22:38:15.311328","MEAN_MOTION":15.03906063,"ECCENTRICITY":0.00090855,"INCLINATION":98.0946,"RA_OF_ASC_NODE":57.9399,"ARG_OF_PERICENTER":68.4739,"MEAN_ANOMALY":291.7454,"EPHEMERIS_TYPE":0,"CLASSIFICATION_TYPE":"U","NORAD_CAT_ID":46497,"ELEMENT_SET_NO":999,"REV_AT_EPOCH":29831,"BSTAR":0.00025875904,"MEAN_MOTION_DOT":3.502e-5,"MEAN_MOTION_DDOT":0},{"OBJECT_NAME":"YAOGAN-30 11B","OBJECT_ID":"2021-065C","EPOCH":"2026-03-09T16:31:48.488160","MEAN_MOTION":15.02134262,"ECCENTRICITY":9.601e-5,"INCLINATION":34.9931,"RA_OF_ASC_NODE":159.0081,"ARG_OF_PERICENTER":264.9738,"MEAN_ANOMALY":95.0861,"EPHEMERIS_TYPE":0,"CLASSIFICATION_TYPE":"U","NORAD_CAT_ID":49028,"ELEMENT_SET_NO":999,"REV_AT_EPOCH":25365,"BSTAR":0.00032720228,"MEAN_MOTION_DOT":4.364e-5,"MEAN_MOTION_DDOT":0}]
